OBJECT_NAME,OBJECT_ID,EPOCH,MEAN_MOTION,ECCENTRICITY,INCLINATION,RA_OF_ASC_NODE,ARG_OF_PERICENTER,MEAN_ANOMALY,EPHEMERIS_TYPE,CLASSIFICATION_TYPE,NORAD_CAT_ID,ELEMENT_SET_NO,REV_AT_EPOCH,BSTAR,MEAN_MOTION_DOT,MEAN_MOTION_DDOT
SKYSAT-C1,2016-040C,2026-07-01T08:23:08.941920,15.36540688,.0001956,96.9551,213.3028,27.0572,333.0775,0,U,41601,999,56004,.32381521E-3,.11479E-3,0
LAPAN-A3,2016-040E,2026-07-01T22:35:56.904576,15.33200765,.00090507,97.1490,178.6034,332.5900,27.4864,0,U,41603,999,55707,.12833826E-3,.4045E-4,0
GAOFEN-3,2016-049A,2026-07-02T00:00:21.053952,14.42216744,.00016531,98.4006,190.5622,95.0422,265.0956,0,U,41727,999,52078,-.34206268E-4,-.156E-5,0
SKYSAT-C4,2016-058B,2026-07-01T20:51:28.497312,15.49051798,.00026128,96.9163,204.0299,136.8651,223.2807,0,U,41771,999,54774,.36948496E-3,.19967E-3,0
SKYSAT-C5,2016-058C,2026-07-01T21:44:41.400672,15.34679931,.00018644,97.0457,222.8905,193.6115,166.5079,0,U,41772,999,54600,.27795072E-3,.9269E-4,0
SKYSAT-C2,2016-058D,2026-07-01T19:02:26.842272,15.42404236,.00031691,97.0156,204.3407,37.4890,322.6579,0,U,41773,999,54730,.34865075E-3,.14994E-3,0
SKYSAT-C3,2016-058E,2026-07-01T20:03:45.736992,15.53173262,.00015297,96.8998,213.1241,133.1222,227.0161,0,U,41774,999,54838,.43176655E-3,.27051E-3,0
ALSAT-1B,2016-059C,2026-07-01T23:42:59.311872,14.72285691,.0009345,97.7745,191.1129,169.3963,190.7444,0,U,41785,999,52275,.70971217E-4,.401E-5,0
PATHFINDER 1,2016-059E,2026-07-01T22:20:24.704736,14.67680126,.00290019,97.8168,181.5418,156.5390,203.7146,0,U,41787,999,52187,.12322061E-3,.659E-5,0
SCATSAT 1,2016-059H,2026-07-01T21:20:03.652224,14.79559343,.00542272,98.1185,246.8066,199.3539,160.5613,0,U,41790,999,10376,.18906139E-3,.1393E-4,0
GOKTURK 1A,2016-073A,2026-07-01T22:51:40.169664,14.62785478,.00014341,98.1239,77.3953,76.5871,283.5490,0,U,41875,999,51098,.12983913E-3,.616E-5,0
RESOURCESAT-2A,2016-074A,2026-07-01T22:06:54.150912,14.21604015,.00030669,98.7529,256.3052,55.3389,304.8077,0,U,41877,999,49639,-.60989921E-4,-.178E-5,0
CARTOSAT-2D,2017-008A,2026-07-01T21:53:06.990144,15.19316996,.00052565,97.4099,241.9428,176.9795,183.1472,0,U,41948,999,51981,.21991277E-3,.4578E-4,0
SENTINEL-2B,2017-013A,2026-07-01T23:06:19.250784,14.30820628,.00012185,98.5694,257.5285,91.1545,268.9778,0,U,42063,999,48675,.38835589E-4,.58E-6,0
CARTOSAT-2E,2017-036C,2026-07-01T22:18:45.732672,15.19276407,.00023781,97.4268,242.4889,241.4475,118.6520,0,U,42767,999,50038,.17093767E-3,.3537E-4,0
FORMOSAT-5,2017-049A,2026-07-01T21:07:10.824096,14.50904081,.00121953,98.2252,257.8632,43.2628,316.9523,0,U,42920,999,46880,.53891151E-4,.169E-5,0
SENTINEL-5P,2017-064A,2026-07-01T10:33:39.626208,14.19521372,.00010441,98.7927,124.4701,90.9514,269.1781,0,U,42969,999,45158,.51758051E-4,.65E-6,0
SKYSAT-C11,2017-068A,2026-07-01T22:56:00.525696,15.58670973,.00005888,97.4370,332.4372,155.9143,204.2140,0,U,42987,999,48554,.44161314E-3,.33901E-3,0
SKYSAT-C10,2017-068B,2026-07-01T21:31:37.983360,15.34885082,.00012278,97.4525,319.8901,107.3220,252.8157,0,U,42988,999,48461,.31298324E-3,.1051E-3,0
SKYSAT-C9,2017-068C,2026-07-01T21:46:33.426048,15.41926023,.00094022,97.4448,320.9772,86.8803,273.3520,0,U,42989,999,48502,.35925258E-3,.15222E-3,0
SKYSAT-C8,2017-068D,2026-07-01T21:51:40.694688,15.37263283,.00012928,97.4543,319.7607,94.6168,265.5224,0,U,42990,999,48457,.34153276E-3,.12389E-3,0
SKYSAT-C7,2017-068E,2026-07-01T21:43:08.779008,15.37216206,.00067197,97.4556,320.7449,63.8028,296.3906,0,U,42991,999,48463,.33589831E-3,.12173E-3,0
SKYSAT-C6,2017-068F,2026-07-01T22:51:42.795360,15.34218392,.00052325,97.4591,320.7049,111.0617,249.1185,0,U,42992,999,48458,.33596518E-3,.11056E-3,0
CARTOSAT-2F,2018-004A,2026-07-01T21:30:30.770208,15.19179502,.00015674,97.4784,242.3869,163.2506,196.8780,0,U,43111,999,46956,.2081774E-3,.431E-4,0
GAOFEN-1 02,2018-031A,2026-07-01T22:29:29.226048,14.76455633,.00023231,98.0523,245.4221,349.7328,10.3833,0,U,43259,999,44487,.12363807E-3,.809E-5,0
GAOFEN-1 03,2018-031B,2026-07-01T23:35:24.955008,14.76446800,.00033579,98.0511,245.3251,48.3378,311.8118,0,U,43260,999,44487,.12393285E-3,.811E-5,0
GAOFEN-1 04,2018-031D,2026-07-01T23:00:32.217408,14.76454737,.00018354,98.0525,245.4933,63.1343,297.0054,0,U,43262,999,44486,.10301414E-3,.665E-5,0
SENTINEL-3B,2018-039A,2026-07-01T22:00:27.345024,14.26738948,.00008259,98.6244,250.2376,117.4742,242.6522,0,U,43437,999,42622,.70486517E-4,.127E-5,0
GAOFEN-5 01,2018-043A,2026-07-01T22:15:18.068544,14.60615675,.00027282,98.4578,154.8236,57.0066,303.1395,0,U,43461,999,43384,.80854632E-4,.344E-5,0
GAOFEN-6,2018-048A,2026-07-01T13:46:19.564320,14.76366587,.00118189,98.0968,245.2430,119.7907,240.4480,0,U,43484,999,43551,-.4446977E-5,-.83E-6,0
