SKYSAT-C1               
1 41601U 16040C   26182.34940905  .00011479  00000+0  32382-3 0  9998
2 41601  96.9551 213.3028 0001956  27.0572 333.0775 15.36540688560041
LAPAN-A3                
1 41603U 16040E   26182.94163084  .00004045  00000+0  12834-3 0  9992
2 41603  97.1490 178.6034 0009050 332.5900  27.4864 15.33200765557078
GAOFEN-3                
1 41727U 16049A   26183.00024368 -.00000156  00000+0 -34206-4 0  9996
2 41727  98.4006 190.5622 0001653  95.0422 265.0956 14.42216744520782
SKYSAT-C4               
1 41771U 16058B   26182.86907983  .00019967  00000+0  36948-3 0  9993
2 41771  96.9163 204.0299 0002612 136.8651 223.2807 15.49051798547743
SKYSAT-C5               
1 41772U 16058C   26182.90603473  .00009269  00000+0  27795-3 0  9990
2 41772  97.0457 222.8905 0001864 193.6115 166.5079 15.34679931546005
SKYSAT-C2               
1 41773U 16058D   26182.79336623  .00014994  00000+0  34865-3 0  9995
2 41773  97.0156 204.3407 0003169  37.4890 322.6579 15.42404236547306
SKYSAT-C3               
1 41774U 16058E   26182.83594603  .00027051  00000+0  43177-3 0  9999
2 41774  96.8998 213.1241 0001529 133.1222 227.0161 15.53173262548381
ALSAT-1B                
1 41785U 16059C   26182.98818648  .00000401  00000+0  70971-4 0  9999
2 41785  97.7745 191.1129 0009345 169.3963 190.7444 14.72285691522753
PATHFINDER 1            
1 41787U 16059E   26182.93084149  .00000659  00000+0  12322-3 0  9997
2 41787  97.8168 181.5418 0029001 156.5390 203.7146 14.67680126521874
SCATSAT 1               
1 41790U 16059H   26182.88893116  .00001393  00000+0  18906-3 0  9997
2 41790  98.1185 246.8066 0054227 199.3539 160.5613 14.79559343103765
GOKTURK 1A              
1 41875U 16073A   26182.95254826  .00000616  00000+0  12984-3 0  9991
2 41875  98.1239  77.3953 0001434  76.5871 283.5490 14.62785478510985
RESOURCESAT-2A          
1 41877U 16074A   26182.92146008 -.00000178  00000+0 -60990-4 0  9999
2 41877  98.7529 256.3052 0003066  55.3389 304.8077 14.21604015496394
CARTOSAT-2D             
1 41948U 17008A   26182.91188646  .00004578  00000+0  21991-3 0  9992
2 41948  97.4099 241.9428 0005256 176.9795 183.1472 15.19316996519818
SENTINEL-2B             
1 42063U 17013A   26182.96272281  .00000058  00000+0  38836-4 0  9997
2 42063  98.5694 257.5285 0001218  91.1545 268.9778 14.30820628486750
CARTOSAT-2E             
1 42767U 17036C   26182.92969598  .00003537  00000+0  17094-3 0  9990
2 42767  97.4268 242.4889 0002378 241.4475 118.6520 15.19276407500389
FORMOSAT-5              
1 42920U 17049A   26182.87998639  .00000169  00000+0  53891-4 0  9991
2 42920  98.2252 257.8632 0012195  43.2628 316.9523 14.50904081468800
SENTINEL-5P             
1 42969U 17064A   26182.44004197  .00000065  00000+0  51758-4 0  9996
2 42969  98.7927 124.4701 0001044  90.9514 269.1781 14.19521372451582
SKYSAT-C11              
1 42987U 17068A   26182.95556164  .00033901  00000+0  44161-3 0  9996
2 42987  97.4370 332.4372 0000588 155.9143 204.2140 15.58670973485545
SKYSAT-C10              
1 42988U 17068B   26182.89696740  .00010510  00000+0  31298-3 0  9993
2 42988  97.4525 319.8901 0001227 107.3220 252.8157 15.34885082484610
SKYSAT-C9               
1 42989U 17068C   26182.90733132  .00015222  00000+0  35925-3 0  9999
2 42989  97.4448 320.9772 0009402  86.8803 273.3520 15.41926023485022
SKYSAT-C8               
1 42990U 17068D   26182.91088767  .00012389  00000+0  34153-3 0  9992
2 42990  97.4543 319.7607 0001292  94.6168 265.5224 15.37263283484573
SKYSAT-C7               
1 42991U 17068E   26182.90496272  .00012173  00000+0  33590-3 0  9991
2 42991  97.4556 320.7449 0006719  63.8028 296.3906 15.37216206484635
SKYSAT-C6               
1 42992U 17068F   26182.95257865  .00011056  00000+0  33597-3 0  9996
2 42992  97.4591 320.7049 0005232 111.0617 249.1185 15.34218392484584
CARTOSAT-2F             
1 43111U 18004A   26182.89618947  .00004310  00000+0  20818-3 0  9993
2 43111  97.4784 242.3869 0001567 163.2506 196.8780 15.19179502469566
GAOFEN-1 02             
1 43259U 18031A   26182.93714382  .00000809  00000+0  12364-3 0  9997
2 43259  98.0523 245.4221 0002323 349.7328  10.3833 14.76455633444877
GAOFEN-1 03             
1 43260U 18031B   26182.98292772  .00000811  00000+0  12393-3 0  9993
2 43260  98.0511 245.3251 0003357  48.3378 311.8118 14.76446800444874
GAOFEN-1 04             
1 43262U 18031D   26182.95870622  .00000665  00000+0  10301-3 0  9992
2 43262  98.0525 245.4933 0001835  63.1343 297.0054 14.76454737444866
SENTINEL-3B             
1 43437U 18039A   26182.91698316  .00000127  00000+0  70487-4 0  9993
2 43437  98.6244 250.2376 0000825 117.4742 242.6522 14.26738948426223
GAOFEN-5 01             
1 43461U 18043A   26182.92729246  .00000344  00000+0  80855-4 0  9994
2 43461  98.4578 154.8236 0002728  57.0066 303.1395 14.60615675433840
GAOFEN-6                
1 43484U 18048A   26182.57383755 -.00000083  00000+0 -44470-5 0  9992
2 43484  98.0968 245.2430 0011818 119.7907 240.4480 14.76366587435511
